[{"OBJECT_NAME":"YAOGAN-32 02B","OBJECT_ID":"2021-099B","EPOCH":"2026-03-09T22:33:19.291104","MEAN_MOTION":14.64050838,"ECCENTRICITY":0.00012785,"INCLINATION":98.2293,"RA_OF_ASC_NODE":202.7352,"ARG_OF_PERICENTER":124.0127,"MEAN_ANOMALY":236.1197,"EPHEMERIS_TYPE":0,"CLASSIFICATION_TYPE":"U","NORAD_CAT_ID":49384,"ELEMENT_SET_NO":999,"REV_AT_EPOCH":23184,"BSTAR":0.000246305,"MEAN_MOTION_DOT":1.244e-5,"MEAN_MOTION_DDOT":0},{"OBJECT_NAME":"FENGYUN 1C DEB","OBJECT_ID":"1999-025MH","EPOCH":"2026-03-09T21:46:02.158752","MEAN_MOTION":14.69020874,"ECCENTRICITY":0.00369439,"INCLINATION":99.3767,"RA_OF_ASC_NODE":42.7498,"ARG_OF_PERICENTER":290.3905,"MEAN_ANOMALY":124.1845,"EPHEMERIS_TYPE":0,"CLASSIFICATION_TYPE":"U","NORAD_CAT_ID":30008,"ELEMENT_SET_NO":999,"REV_AT_EPOCH":339,"BSTAR":0.0021532396,"MEAN_MOTION_DOT":0.00012718,"MEAN_MOTION_DDOT":0}]
